{"fetched_at":"2026-03-29T02:12:04Z","count":15717,"tles":[{"name":"GSAT0227 (GALILEO 30)","line1":"1 59600U 24079C   26084.70822061  .00000032  00000+0  00000+0 0  9991","line2":"2 59600  55.0598 103.4096 0000616  12.6919 347.3562  1.70474585 11944","category":"GPS"}]}